CTC2_L_00001001-01
1 85634U 25794UC  26070.40841435  .00000000  00000+0  00000-0 0  9996
2 85634  75.0000   0.0000 0000000   0.0000   0.0000 15.90815360    19
CTC2_L_00001001-02
1 85635U 23581BL  26070.40841435  .00000000  00000+0  00000-0 0  9999
2 85635  75.0000   0.0000 0000000   0.0000  90.0000 15.90815360    19
CTC2_L_00001001-03
1 85636U 23398TX  26070.40841435  .00000000  00000+0  00000-0 0  9996
2 85636  75.0000   0.0000 0000000   0.0000 180.0000 15.90815360    10
CTC2_L_00001001-04
1 85637U 22369DG  26070.40841435  .00000000  00000+0  00000-0 0  9994
2 85637  75.0000   0.0000 0000000   0.0000 270.0000 15.90815360    11
CTC2_L_00001002-01
1 85638U 24725FK  26070.40841435  .00000000  00000+0  00000-0 0  9993
2 85638  75.0000  12.0000 0000000   0.0000  12.0000 15.90815360    19
CTC2_L_00001002-02
1 85639U 23618NL  26070.40841435  .00000000  00000+0  00000-0 0  9994
2 85639  75.0000  12.0000 0000000   0.0000 102.0000 15.90815360    10
CTC2_L_00001002-03
1 85640U 26452VH  26070.40841435  .00000000  00000+0  00000-0 0  9995
2 85640  75.0000  12.0000 0000000   0.0000 192.0000 15.90815360    11
CTC2_L_00001002-04
1 85641U 25641ZN  26070.40841435  .00000000  00000+0  00000-0 0  9995
2 85641  75.0000  12.0000 0000000   0.0000 282.0000 15.90815360    12
CTC2_L_00001003-01
1 85642U 23640HG  26070.40841435  .00000000  00000+0  00000-0 0  9993
2 85642  75.0000  24.0000 0000000   0.0000  24.0000 15.90815360    10
CTC2_L_00001003-02
1 85643U 26086G   26070.40841435  .00000000  00000+0  00000-0 0  9991
2 85643  75.0000  24.0000 0000000   0.0000 114.0000 15.90815360    11
CTC2_L_00001003-03
1 85644U 25818NK  26070.40841435  .00000000  00000+0  00000-0 0  9994
2 85644  75.0000  24.0000 0000000   0.0000 204.0000 15.90815360    12
CTC2_L_00001003-04
1 85645U 25653HP  26070.40841435  .00000000  00000+0  00000-0 0  9992
2 85645  75.0000  24.0000 0000000   0.0000 294.0000 15.90815360    12
CTC2_L_00001004-01
1 85646U 23401L   26070.40841435  .00000000  00000+0  00000-0 0  9992
2 85646  75.0000  36.0000 0000000   0.0000  36.0000 15.90815360    10
CTC2_L_00001004-02
1 85647U 25908KA  26070.40841435  .00000000  00000+0  00000-0 0  9997
2 85647  75.0000  36.0000 0000000   0.0000 126.0000 15.90815360    11
CTC2_L_00001004-03
1 85648U 25471FD  26070.40841435  .00000000  00000+0  00000-0 0  9993
2 85648  75.0000  36.0000 0000000   0.0000 216.0000 15.90815360    12
CTC2_L_00001004-04
1 85649U 22002TX  26070.40841435  .00000000  00000+0  00000-0 0  9991
2 85649  75.0000  36.0000 0000000   0.0000 306.0000 15.90815360    13
CTC2_L_00001005-01
1 85650U 26045OU  26070.40841435  .00000000  00000+0  00000-0 0  9994
2 85650  75.0000  48.0000 0000000   0.0000  48.0000 15.90815360    11
CTC2_L_00001005-02
1 85651U 24599BW  26070.40841435  .00000000  00000+0  00000-0 0  9997
2 85651  75.0000  48.0000 0000000   0.0000 138.0000 15.90815360    12
CTC2_L_00001005-03
1 85652U 26149FD  26070.40841435  .00000000  00000+0  00000-0 0  9991
2 85652  75.0000  48.0000 0000000   0.0000 228.0000 15.90815360    13
CTC2_L_00001005-04
1 85653U 22143EI  26070.40841435  .00000000  00000+0  00000-0 0  9992
2 85653  75.0000  48.0000 0000000   0.0000 318.0000 15.90815360    14
CTC2_L_00001006-01
1 85654U 23290HG  26070.40841435  .00000000  00000+0  00000-0 0  9997
2 85654  75.0000  60.0000 0000000   0.0000  60.0000 15.90815360    13
CTC2_L_00001006-02
1 85655U 25529MN  26070.40841435  .00000000  00000+0  00000-0 0  9995
2 85655  75.0000  60.0000 0000000   0.0000 150.0000 15.90815360    14
CTC2_L_00001006-03
1 85656U 23624YK  26070.40841435  .00000000  00000+0  00000-0 0  9990
2 85656  75.0000  60.0000 0000000   0.0000 240.0000 15.90815360    15
CTC2_L_00001006-04
1 85657U 23584OY  26070.40841435  .00000000  00000+0  00000-0 0  9996
2 85657  75.0000  60.0000 0000000   0.0000 330.0000 15.90815360    16
CTC2_L_00001007-01
1 85658U 26232GN  26070.40841435  .00000000  00000+0  00000-0 0  9990
2 85658  75.0000  72.0000 0000000   0.0000  72.0000 15.90815360    13
CTC2_L_00001007-02
1 85659U 24690AF  26070.40841435  .00000000  00000+0  00000-0 0  9997
2 85659  75.0000  72.0000 0000000   0.0000 162.0000 15.90815360    14
CTC2_L_00001007-03
1 85660U 22889GD  26070.40841435  .00000000  00000+0  00000-0 0  9997
2 85660  75.0000  72.0000 0000000   0.0000 252.0000 15.90815360    16
CTC2_L_00001007-04
1 85661U 23590MW  26070.40841435  .00000000  00000+0  00000-0 0  9998
2 85661  75.0000  72.0000 0000000   0.0000 342.0000 15.90815360    17
CTC2_L_00001008-01
1 85662U 25075XB  26070.40841435  .00000000  00000+0  00000-0 0  9999
2 85662  75.0000  84.0000 0000000   0.0000  84.0000 15.90815360    14
CTC2_L_00001008-02
1 85663U 26502CJ  26070.40841435  .00000000  00000+0  00000-0 0  9996
2 85663  75.0000  84.0000 0000000   0.0000 174.0000 15.90815360    15
CTC2_L_00001008-03
1 85664U 25941ZD  26070.40841435  .00000000  00000+0  00000-0 0  9993
2 85664  75.0000  84.0000 0000000   0.0000 264.0000 15.90815360    16
CTC2_L_00001008-04
1 85665U 25103VD  26070.40841435  .00000000  00000+0  00000-0 0  9994
2 85665  75.0000  84.0000 0000000   0.0000 354.0000 15.90815360    17
CTC2_L_00001009-01
1 85666U 25516GG  26070.40841435  .00000000  00000+0  00000-0 0  9993
2 85666  75.0000  96.0000 0000000   0.0000  96.0000 15.90815360    14
CTC2_L_00001009-02
1 85667U 26050JW  26070.40841435  .00000000  00000+0  00000-0 0  9998
2 85667  75.0000  96.0000 0000000   0.0000 186.0000 15.90815360    15
CTC2_L_00001009-03
1 85668U 26244RE  26070.40841435  .00000000  00000+0  00000-0 0  9994
2 85668  75.0000  96.0000 0000000   0.0000 276.0000 15.90815360    16
CTC2_L_00001009-04
1 85669U 25312VR  26070.40841435  .00000000  00000+0  00000-0 0  9990
2 85669  75.0000  96.0000 0000000   0.0000   6.0000 15.90815360    18
CTC2_L_00001010-01
1 85670U 23115XD  26070.40841435  .00000000  00000+0  00000-0 0  9991
2 85670  75.0000 108.0000 0000000   0.0000 108.0000 15.90815360    17
CTC2_L_00001010-02
1 85671U 26389IM  26070.40841435  .00000000  00000+0  00000-0 0  9998
2 85671  75.0000 108.0000 0000000   0.0000 198.0000 15.90815360    17
CTC2_L_00001010-03
1 85672U 22461WS  26070.40841435  .00000000  00000+0  00000-0 0  9996
2 85672  75.0000 108.0000 0000000   0.0000 288.0000 15.90815360    18
CTC2_L_00001010-04
1 85673U 26509J   26070.40841435  .00000000  00000+0  00000-0 0  9994
2 85673  75.0000 108.0000 0000000   0.0000  18.0000 15.90815360    10
CTC2_L_00001011-01
1 85674U 23998DA  26070.40841435  .00000000  00000+0  00000-0 0  9994
2 85674  75.0000 120.0000 0000000   0.0000 120.0000 15.90815360    19
CTC2_L_00001011-02
1 85675U 25807IW  26070.40841435  .00000000  00000+0  00000-0 0  9996
2 85675  75.0000 120.0000 0000000   0.0000 210.0000 15.90815360    10
CTC2_L_00001011-03
1 85676U 24169WG  26070.40841435  .00000000  00000+0  00000-0 0  9997
2 85676  75.0000 120.0000 0000000   0.0000 300.0000 15.90815360    11
CTC2_L_00001011-04
1 85677U 23859ID  26070.40841435  .00000000  00000+0  00000-0 0  9993
2 85677  75.0000 120.0000 0000000   0.0000  30.0000 15.90815360    12
CTC2_L_00001012-01
1 85678U 26905G   26070.40841435  .00000000  00000+0  00000-0 0  9999
2 85678  75.0000 132.0000 0000000   0.0000 132.0000 15.90815360    19
CTC2_L_00001012-02
1 85679U 24648YD  26070.40841435  .00000000  00000+0  00000-0 0  9992
2 85679  75.0000 132.0000 0000000   0.0000 222.0000 15.90815360    10
CTC2_L_00001012-03
1 85680U 24653QE  26070.40841435  .00000000  00000+0  00000-0 0  9990
2 85680  75.0000 132.0000 0000000   0.0000 312.0000 15.90815360    12
CTC2_L_00001012-04
1 85681U 25743AR  26070.40841435  .00000000  00000+0  00000-0 0  9992
2 85681  75.0000 132.0000 0000000   0.0000  42.0000 15.90815360    13
CTC2_L_00001013-01
1 85682U 23652RS  26070.40841435  .00000000  00000+0  00000-0 0  9990
2 85682  75.0000 144.0000 0000000   0.0000 144.0000 15.90815360    10
CTC2_L_00001013-02
1 85683U 26412PW  26070.40841435  .00000000  00000+0  00000-0 0  9998
2 85683  75.0000 144.0000 0000000   0.0000 234.0000 15.90815360    11
CTC2_L_00001013-03
1 85684U 26474F   26070.40841435  .00000000  00000+0  00000-0 0  9997
2 85684  75.0000 144.0000 0000000   0.0000 324.0000 15.90815360    12
CTC2_L_00001013-04
1 85685U 22535IU  26070.40841435  .00000000  00000+0  00000-0 0  9992
2 85685  75.0000 144.0000 0000000   0.0000  54.0000 15.90815360    13
CTC2_L_00001014-01
1 85686U 24586XN  26070.40841435  .00000000  00000+0  00000-0 0  9991
2 85686  75.0000 156.0000 0000000   0.0000 156.0000 15.90815360    10
CTC2_L_00001014-02
1 85687U 24330SV  26070.40841435  .00000000  00000+0  00000-0 0  9999
2 85687  75.0000 156.0000 0000000   0.0000 246.0000 15.90815360    11
CTC2_L_00001014-03
1 85688U 22719IO  26070.40841435  .00000000  00000+0  00000-0 0  9999
2 85688  75.0000 156.0000 0000000   0.0000 336.0000 15.90815360    12
CTC2_L_00001014-04
1 85689U 22443LZ  26070.40841435  .00000000  00000+0  00000-0 0  9994
2 85689  75.0000 156.0000 0000000   0.0000  66.0000 15.90815360    13
CTC2_L_00001015-01
1 85690U 22466PF  26070.40841435  .00000000  00000+0  00000-0 0  9991
2 85690  75.0000 168.0000 0000000   0.0000 168.0000 15.90815360    11
CTC2_L_00001015-02
1 85691U 26740HQ  26070.40841435  .00000000  00000+0  00000-0 0  9991
2 85691  75.0000 168.0000 0000000   0.0000 258.0000 15.90815360    12
CTC2_L_00001015-03
1 85692U 24570YC  26070.40841435  .00000000  00000+0  00000-0 0  9991
2 85692  75.0000 168.0000 0000000   0.0000 348.0000 15.90815360    13
CTC2_L_00001015-04
1 85693U 23661MC  26070.40841435  .00000000  00000+0  00000-0 0  9992
2 85693  75.0000 168.0000 0000000   0.0000  78.0000 15.90815360    14
CTC2_L_00001016-01
1 85694U 23837JU  26070.40841435  .00000000  00000+0  00000-0 0  9998
2 85694  75.0000 180.0000 0000000   0.0000 180.0000 15.90815360    13
CTC2_L_00001016-02
1 85695U 25437IB  26070.40841435  .00000000  00000+0  00000-0 0  9997
2 85695  75.0000 180.0000 0000000   0.0000 270.0000 15.90815360    14
